OPS 7218 (TRANSIT 16)   
1 02807U 67048A   26064.71872340  .00000167  00000+0  24296-3 0  9991
2 02807  89.6811 351.2953 0018400 233.8050 190.1080 13.50743122893966
OPS 4947 (TRANSIT 17)   
1 02965U 67092A   26064.63450218  .00000188  00000+0  26061-3 0  9997
2 02965  89.2560  18.1207 0047792 357.7838 175.8068 13.53476823882187
OPS 7034 (TRANSIT 18)   
1 03133U 68012A   26064.62202134  .00000151  00000+0  21582-3 0  9992
2 03133  90.0214 273.8607 0072144 291.0776 128.1889 13.51588341580381
NNSS 19 (TRANSIT 19)    
1 04507U 70067A   26064.70553623  .00000149  00000+0  19467-3 0  9998
2 04507  90.0051 234.5785 0173182  53.0044 308.6816 13.51337372733421
NNSS 20 (TRANSIT 20)    
1 06909U 73081A   26064.56804441  .00000256  00000+0  25066-3 0  9997
2 06909  89.8511 253.7938 0154293 189.1726 170.6613 13.71473410814966
TRANSAT                 
1 10457U 77106A   26064.57801400  .00000083  00000+0  11637-3 0  9992
2 10457  89.6397  75.6243 0024146 318.1203 161.4860 13.48957376378606
NOVA 1                  
1 12458U 81044A   26064.61664199  .00000035  00000+0  61842-4 0  9999
2 12458  89.8425  90.1777 0012737 230.8634 250.0519 13.23287066162824
NOVA 3                  
1 15362U 84110A   26064.58309951  .00000088  00000+0  18815-3 0  9990
2 15362  90.1128  81.4713 0033422 100.5474  24.0356 13.23056418997940
OSCAR 30                
1 15935U 85066A   26064.65676542  .00000082  00000+0  13326-3 0  9994
2 15935  90.1550 101.1712 0166907 209.1750 272.7057 13.36094231975600
OSCAR 24                
1 15936U 85066B   26064.64998740  .00000099  00000+0  16491-3 0  9995
2 15936  90.1688  93.7360 0167737 215.7673 266.4143 13.35952090977509
POLAR BEAR              
1 17070U 86088A   26064.71547115  .00000142  00000+0  13572-3 0  9991
2 17070  89.6252 180.4749 0037962 228.0631 253.0163 13.75269347971195
OSCAR 27                
1 18361U 87080A   26064.57350173  .00000113  00000+0  17436-3 0  9999
2 18361  90.3647  82.3309 0103348 348.4670  11.4111 13.44923829886709
OSCAR 29                
1 18362U 87080B   26064.62339604  .00000105  00000+0  16018-3 0  9998
2 18362  90.3657  82.7982 0105730  11.5676 105.1534 13.44464024886238
OSCAR 23                
1 19070U 88033A   26064.42913935  .00000119  00000+0  22663-3 0  9995
2 19070  90.3288  18.9684 0188097 310.9106 168.2913 13.27803007833508
OSCAR 32                
1 19071U 88033B   26064.63344707  .00000073  00000+0  13556-3 0  9994
2 19071  90.3291  19.1114 0186192 297.0393 237.9873 13.27967718833656
NOVA 2                  
1 19223U 88052A   26064.59263921  .00000059  00000+0  11958-3 0  9995
2 19223  89.9782  78.1309 0031555 142.4550 339.8496 13.22947174820439
OSCAR 25                
1 19419U 88074A   26064.64009802  .00000144  00000+0  23115-3 0  9991
2 19419  90.0414  20.5247 0096717  11.0046 161.7194 13.42640964837529
