[{"OBJECT_NAME":"OPS 7218 (TRANSIT 16)","OBJECT_ID":"1967-048A","EPOCH":"2026-03-05T17:14:57.701760","MEAN_MOTION":13.50743122,"ECCENTRICITY":0.00184,"INCLINATION":89.6811,"RA_OF_ASC_NODE":351.2953,"ARG_OF_PERICENTER":233.805,"MEAN_ANOMALY":190.108,"EPHEMERIS_TYPE":0,"CLASSIFICATION_TYPE":"U","NORAD_CAT_ID":2807,"ELEMENT_SET_NO":999,"REV_AT_EPOCH":89396,"BSTAR":0.00024296,"MEAN_MOTION_DOT":1.67e-6,"MEAN_MOTION_DDOT":0},{"OBJECT_NAME":"OPS 4947 (TRANSIT 17)","OBJECT_ID":"1967-092A","EPOCH":"2026-03-05T15:13:40.988352","MEAN_MOTION":13.53476823,"ECCENTRICITY":0.0047792,"INCLINATION":89.256,"RA_OF_ASC_NODE":18.1207,"ARG_OF_PERICENTER":357.7838,"MEAN_ANOMALY":175.8068,"EPHEMERIS_TYPE":0,"CLASSIFICATION_TYPE":"U","NORAD_CAT_ID":2965,"ELEMENT_SET_NO":999,"REV_AT_EPOCH":88218,"BSTAR":0.00026061,"MEAN_MOTION_DOT":1.88e-6,"MEAN_MOTION_DDOT":0},{"OBJECT_NAME":"OPS 7034 (TRANSIT 18)","OBJECT_ID":"1968-012A","EPOCH":"2026-03-05T14:55:42.643776","MEAN_MOTION":13.51588341,"ECCENTRICITY":0.0072144,"INCLINATION":90.0214,"RA_OF_ASC_NODE":273.8607,"ARG_OF_PERICENTER":291.0776,"MEAN_ANOMALY":128.1889,"EPHEMERIS_TYPE":0,"CLASSIFICATION_TYPE":"U","NORAD_CAT_ID":3133,"ELEMENT_SET_NO":999,"REV_AT_EPOCH":58038,"BSTAR":0.00021582,"MEAN_MOTION_DOT":1.51e-6,"MEAN_MOTION_DDOT":0},{"OBJECT_NAME":"NNSS 19 (TRANSIT 19)","OBJECT_ID":"1970-067A","EPOCH":"2026-03-05T16:55:58.330272","MEAN_MOTION":13.51337372,"ECCENTRICITY":0.0173182,"INCLINATION":90.0051,"RA_OF_ASC_NODE":234.5785,"ARG_OF_PERICENTER":53.0044,"MEAN_ANOMALY":308.6816,"EPHEMERIS_TYPE":0,"CLASSIFICATION_TYPE":"U","NORAD_CAT_ID":4507,"ELEMENT_SET_NO":999,"REV_AT_EPOCH":73342,"BSTAR":0.00019467,"MEAN_MOTION_DOT":1.49e-6,"MEAN_MOTION_DDOT":0},{"OBJECT_NAME":"NNSS 20 (TRANSIT 20)","OBJECT_ID":"1973-081A","EPOCH":"2026-03-05T13:37:59.037024","MEAN_MOTION":13.7147341,"ECCENTRICITY":0.0154293,"INCLINATION":89.8511,"RA_OF_ASC_NODE":253.7938,"ARG_OF_PERICENTER":189.1726,"MEAN_ANOMALY":170.6613,"EPHEMERIS_TYPE":0,"CLASSIFICATION_TYPE":"U","NORAD_CAT_ID":6909,"ELEMENT_SET_NO":999,"REV_AT_EPOCH":81496,"BSTAR":0.00025066,"MEAN_MOTION_DOT":2.56e-6,"MEAN_MOTION_DDOT":0},{"OBJECT_NAME":"TRANSAT","OBJECT_ID":"1977-106A","EPOCH":"2026-03-05T13:52:20.409600","MEAN_MOTION":13.48957376,"ECCENTRICITY":0.0024146,"INCLINATION":89.6397,"RA_OF_ASC_NODE":75.6243,"ARG_OF_PERICENTER":318.1203,"MEAN_ANOMALY":161.486,"EPHEMERIS_TYPE":0,"CLASSIFICATION_TYPE":"U","NORAD_CAT_ID":10457,"ELEMENT_SET_NO":999,"REV_AT_EPOCH":37860,"BSTAR":0.00011637,"MEAN_MOTION_DOT":8.3e-7,"MEAN_MOTION_DDOT":0},{"OBJECT_NAME":"NOVA 1","OBJECT_ID":"1981-044A","EPOCH":"2026-03-05T14:47:57.867936","MEAN_MOTION":13.23287066,"ECCENTRICITY":0.0012737,"INCLINATION":89.8425,"RA_OF_ASC_NODE":90.1777,"ARG_OF_PERICENTER":230.8634,"MEAN_ANOMALY":250.0519,"EPHEMERIS_TYPE":0,"CLASSIFICATION_TYPE":"U","NORAD_CAT_ID":12458,"ELEMENT_SET_NO":999,"REV_AT_EPOCH":16282,"BSTAR":6.1842e-5,"MEAN_MOTION_DOT":3.5e-7,"MEAN_MOTION_DDOT":0},{"OBJECT_NAME":"NOVA 3","OBJECT_ID":"1984-110A","EPOCH":"2026-03-05T13:59:39.797664","MEAN_MOTION":13.23056418,"ECCENTRICITY":0.0033422,"INCLINATION":90.1128,"RA_OF_ASC_NODE":81.4713,"ARG_OF_PERICENTER":100.5474,"MEAN_ANOMALY":24.0356,"EPHEMERIS_TYPE":0,"CLASSIFICATION_TYPE":"U","NORAD_CAT_ID":15362,"ELEMENT_SET_NO":999,"REV_AT_EPOCH":99794,"BSTAR":0.00018815,"MEAN_MOTION_DOT":8.8e-7,"MEAN_MOTION_DDOT":0},{"OBJECT_NAME":"OSCAR 30","OBJECT_ID":"1985-066A","EPOCH":"2026-03-05T15:45:44.532288","MEAN_MOTION":13.36094231,"ECCENTRICITY":0.0166907,"INCLINATION":90.155,"RA_OF_ASC_NODE":101.1712,"ARG_OF_PERICENTER":209.175,"MEAN_ANOMALY":272.7057,"EPHEMERIS_TYPE":0,"CLASSIFICATION_TYPE":"U","NORAD_CAT_ID":15935,"ELEMENT_SET_NO":999,"REV_AT_EPOCH":97560,"BSTAR":0.00013326,"MEAN_MOTION_DOT":8.2e-7,"MEAN_MOTION_DDOT":0},{"OBJECT_NAME":"OSCAR 24","OBJECT_ID":"1985-066B","EPOCH":"2026-03-05T15:35:58.911360","MEAN_MOTION":13.3595209,"ECCENTRICITY":0.0167737,"INCLINATION":90.1688,"RA_OF_ASC_NODE":93.736,"ARG_OF_PERICENTER":215.7673,"MEAN_ANOMALY":266.4143,"EPHEMERIS_TYPE":0,"CLASSIFICATION_TYPE":"U","NORAD_CAT_ID":15936,"ELEMENT_SET_NO":999,"REV_AT_EPOCH":97750,"BSTAR":0.00016491,"MEAN_MOTION_DOT":9.9e-7,"MEAN_MOTION_DDOT":0},{"OBJECT_NAME":"POLAR BEAR","OBJECT_ID":"1986-088A","EPOCH":"2026-03-05T17:10:16.707360","MEAN_MOTION":13.75269347,"ECCENTRICITY":0.0037962,"INCLINATION":89.6252,"RA_OF_ASC_NODE":180.4749,"ARG_OF_PERICENTER":228.0631,"MEAN_ANOMALY":253.0163,"EPHEMERIS_TYPE":0,"CLASSIFICATION_TYPE":"U","NORAD_CAT_ID":17070,"ELEMENT_SET_NO":999,"REV_AT_EPOCH":97119,"BSTAR":0.00013572,"MEAN_MOTION_DOT":1.42e-6,"MEAN_MOTION_DDOT":0},{"OBJECT_NAME":"OSCAR 27","OBJECT_ID":"1987-080A","EPOCH":"2026-03-05T13:45:50.549472","MEAN_MOTION":13.44923829,"ECCENTRICITY":0.0103348,"INCLINATION":90.3647,"RA_OF_ASC_NODE":82.3309,"ARG_OF_PERICENTER":348.467,"MEAN_ANOMALY":11.4111,"EPHEMERIS_TYPE":0,"CLASSIFICATION_TYPE":"U","NORAD_CAT_ID":18361,"ELEMENT_SET_NO":999,"REV_AT_EPOCH":88670,"BSTAR":0.00017436,"MEAN_MOTION_DOT":1.13e-6,"MEAN_MOTION_DDOT":0},{"OBJECT_NAME":"OSCAR 29","OBJECT_ID":"1987-080B","EPOCH":"2026-03-05T14:57:41.417856","MEAN_MOTION":13.44464024,"ECCENTRICITY":0.010573,"INCLINATION":90.3657,"RA_OF_ASC_NODE":82.7982,"ARG_OF_PERICENTER":11.5676,"MEAN_ANOMALY":105.1534,"EPHEMERIS_TYPE":0,"CLASSIFICATION_TYPE":"U","NORAD_CAT_ID":18362,"ELEMENT_SET_NO":999,"REV_AT_EPOCH":88623,"BSTAR":0.00016018,"MEAN_MOTION_DOT":1.05e-6,"MEAN_MOTION_DDOT":0},{"OBJECT_NAME":"OSCAR 23","OBJECT_ID":"1988-033A","EPOCH":"2026-03-05T10:17:57.639840","MEAN_MOTION":13.27803007,"ECCENTRICITY":0.0188097,"INCLINATION":90.3288,"RA_OF_ASC_NODE":18.9684,"ARG_OF_PERICENTER":310.9106,"MEAN_ANOMALY":168.2913,"EPHEMERIS_TYPE":0,"CLASSIFICATION_TYPE":"U","NORAD_CAT_ID":19070,"ELEMENT_SET_NO":999,"REV_AT_EPOCH":83350,"BSTAR":0.00022663,"MEAN_MOTION_DOT":1.19e-6,"MEAN_MOTION_DDOT":0},{"OBJECT_NAME":"OSCAR 32","OBJECT_ID":"1988-033B","EPOCH":"2026-03-05T15:12:09.826848","MEAN_MOTION":13.27967718,"ECCENTRICITY":0.0186192,"INCLINATION":90.3291,"RA_OF_ASC_NODE":19.1114,"ARG_OF_PERICENTER":297.0393,"MEAN_ANOMALY":237.9873,"EPHEMERIS_TYPE":0,"CLASSIFICATION_TYPE":"U","NORAD_CAT_ID":19071,"ELEMENT_SET_NO":999,"REV_AT_EPOCH":83365,"BSTAR":0.00013556,"MEAN_MOTION_DOT":7.3e-7,"MEAN_MOTION_DDOT":0},{"OBJECT_NAME":"NOVA 2","OBJECT_ID":"1988-052A","EPOCH":"2026-03-05T14:13:24.027744","MEAN_MOTION":13.22947174,"ECCENTRICITY":0.0031555,"INCLINATION":89.9782,"RA_OF_ASC_NODE":78.1309,"ARG_OF_PERICENTER":142.455,"MEAN_ANOMALY":339.8496,"EPHEMERIS_TYPE":0,"CLASSIFICATION_TYPE":"U","NORAD_CAT_ID":19223,"ELEMENT_SET_NO":999,"REV_AT_EPOCH":82043,"BSTAR":0.00011958,"MEAN_MOTION_DOT":5.9e-7,"MEAN_MOTION_DDOT":0},{"OBJECT_NAME":"OSCAR 25","OBJECT_ID":"1988-074A","EPOCH":"2026-03-05T15:21:44.468928","MEAN_MOTION":13.42640964,"ECCENTRICITY":0.0096717,"INCLINATION":90.0414,"RA_OF_ASC_NODE":20.5247,"ARG_OF_PERICENTER":11.0046,"MEAN_ANOMALY":161.7194,"EPHEMERIS_TYPE":0,"CLASSIFICATION_TYPE":"U","NORAD_CAT_ID":19419,"ELEMENT_SET_NO":999,"REV_AT_EPOCH":83752,"BSTAR":0.00023115,"MEAN_MOTION_DOT":1.44e-6,"MEAN_MOTION_DDOT":0}]
